STARLINK-2447_new
1 18110C 21027U   21326.18124920 -.00000035  00000-0 -23330-5 0  3267
2 18110  53.0558   2.9205 0001595  50.2277 238.0339 15.06404521    10
STARLINK-2447_old
1 28110C 21027U   21325.14913267  .00002070  00000-0  13874-3 0  3250
2 28110  53.0557   7.5538 0001577  51.1404  36.8419 15.06390221    15
